NORAD_CAT_ID,OBJECT_NAME,OBJECT_TYPE,EPOCH,MEAN_MOTION,ECCENTRICITY,INCLINATION,RA_OF_ASC_NODE,ARG_OF_PERICENTER,MEAN_ANOMALY,BSTAR,MEAN_MOTION_DOT,MEAN_MOTION_DDOT,TLE_LINE0,TLE_LINE1,TLE_LINE2,SEMIMAJOR_AXIS,PERIOD,APOGEE,PERIGEE,DECAYED
52631.0,STARLINK-3794,PAYLOAD,2023-07-30 07:33:26,15.08841028,0.0001076,53.216,228.9868,82.6351,277.4763,0.00012033,1.628e-05,0.0,0 STARLINK-3794,1 52631U 22052AK  23211.31489453  .00001628  00000-0  12033-3 0  9993,2 52631  53.2160 228.9868 0001076  82.6351 277.4763 15.08841028 67442,6917.877,95.437,540.487,538.998,0.0
52631.0,STARLINK-3794,PAYLOAD,2023-07-31 12:10:23,15.08845187,0.0001103,53.2162,223.6341,84.9024,275.2094,7.3011e-05,8.75e-06,0.0,0 STARLINK-3794,1 52631U 22052AK  23212.50721166  .00000875  00000-0  73011-4 0  9992,2 52631  53.2162 223.6341 0001103  84.9024 275.2094 15.08845187 67628,6917.865,95.437,540.493,538.966,0.0
52631.0,STARLINK-3794,PAYLOAD,2023-07-31 23:18:05,15.08837106,0.0001117,53.2162,221.5521,85.7686,274.3434,2.8409e-05,1.64e-06,0.0,0 STARLINK-3794,1 52631U 22052AK  23212.97089732  .00000164  00000-0  28409-4 0  9991,2 52631  53.2162 221.5521 0001117  85.7686 274.3434 15.08837106 67690,6917.889,95.438,540.527,538.982,0.0
52631.0,STARLINK-3794,PAYLOAD,2023-08-02 00:44:15,15.0883721,0.0001124,53.2162,216.7944,86.1278,273.9843,2.6402e-05,1.32e-06,0.0,0 STARLINK-3794,1 52631U 22052AK  23214.03073763  .00000132  00000-0  26402-4 0  9993,2 52631  53.2162 216.7944 0001124  86.1278 273.9843 15.08837210 67858,6917.889,95.438,540.531,538.976,0.0
52631.0,STARLINK-3794,PAYLOAD,2023-08-03 02:10:26,15.08835987,0.0001071,53.2157,212.0367,86.01,274.1014,5.1959e-05,5.39e-06,0.0,0 STARLINK-3794,1 52631U 22052AK  23215.09057927  .00000539  00000-0  51959-4 0  9990,2 52631  53.2157 212.0367 0001071  86.0100 274.1014 15.08835987 68015,6917.893,95.438,540.499,539.017,0.0
52631.0,STARLINK-3794,PAYLOAD,2023-08-04 09:58:08,15.08837755,0.0001135,53.2162,206.0896,86.3838,273.7284,4.8724e-05,4.88e-06,0.0,0 STARLINK-3794,1 52631U 22052AK  23216.41538172  .00000488  00000-0  48724-4 0  9992,2 52631  53.2162 206.0896 0001135  86.3838 273.7284 15.08837755 68214,6917.887,95.438,540.537,538.967,0.0
52631.0,STARLINK-3794,PAYLOAD,2023-08-05 11:24:18,15.08845227,0.0001172,53.2164,201.3319,90.955,269.1576,9.2885e-05,1.191e-05,0.0,0 STARLINK-3794,1 52631U 22052AK  23217.47521775  .00001191  00000-0  92885-4 0  9999,2 52631  53.2164 201.3319 0001172  90.9550 269.1576 15.08845227 68370,6917.864,95.437,540.54,538.919,0.0
52631.0,STARLINK-3794,PAYLOAD,2023-08-06 03:18:10,15.08838638,0.0001213,53.2166,198.3581,90.3771,269.736,7.2369e-05,8.64e-06,0.0,0 STARLINK-3794,1 52631U 22052AK  23218.13762305  .00000864  00000-0  72369-4 0  9990,2 52631  53.2166 198.3581 0001213  90.3771 269.7360 15.08838638 68479,6917.885,95.438,540.589,538.91,0.0
52631.0,STARLINK-3794,PAYLOAD,2023-08-07 04:44:20,15.08838047,0.0001091,53.2159,193.6,93.5211,266.5906,4.3277e-05,4.01e-06,0.0,0 STARLINK-3794,1 52631U 22052AK  23219.19746461  .00000401  00000-0  43277-4 0  9995,2 52631  53.2159 193.6000 0001091  93.5211 266.5906 15.08838047 68636,6917.886,95.438,540.506,538.997,0.0
52631.0,STARLINK-3794,PAYLOAD,2023-08-08 23:39:45,15.08839596,0.0001157,53.216,185.5716,92.7676,267.3449,7.7848e-05,9.51e-06,0.0,0 STARLINK-3794,1 52631U 22052AK  23220.98594339  .00000951  00000-0  77848-4 0  9990,2 52631  53.2160 185.5716 0001157  92.7676 267.3449 15.08839596 68902,6917.882,95.438,540.547,538.946,0.0
52631.0,STARLINK-3794,PAYLOAD,2023-08-09 23:30:33,15.08834393,0.0001259,53.2168,181.1113,95.0114,265.1022,-7.4695e-06,-4.07e-06,0.0,0 STARLINK-3794,1 52631U 22052AK  23221.97955031 -.00000407  00000-0 -74695-5 0  9996,2 52631  53.2168 181.1113 0001259  95.0114 265.1022 15.08834393 69059,6917.898,95.438,540.633,538.892,0.0
52631.0,STARLINK-3794,PAYLOAD,2023-08-10 13:49:02,15.0882358,0.0001548,53.218,178.4364,94.0462,266.0708,-9.7038e-05,-1.831e-05,0.0,0 STARLINK-3794,1 52631U 22052AK  23222.57572235 -.00001831  00000-0 -97038-4 0  9991,2 52631  53.2180 178.4364 0001548  94.0462 266.0708 15.08823580 69143,6917.931,95.439,540.866,538.725,0.0
52631.0,STARLINK-3794,PAYLOAD,2023-08-11 07:18:18,15.08808151,0.0001643,53.2182,175.1642,96.6956,263.4224,-0.00017989,-3.147e-05,0.0,0 STARLINK-3794,1 52631U 22052AK  23223.30437904 -.00003147  00000-0 -17989-3 0  9994,2 52631  53.2182 175.1642 0001643  96.6956 263.4224 15.08808151 69253,6917.978,95.44,540.979,538.706,0.0
52631.0,STARLINK-3794,PAYLOAD,2023-08-11 13:39:50,15.08825461,0.0001096,53.2146,173.9754,114.1819,245.9288,2.657e-05,1.35e-06,0.0,0 STARLINK-3794,1 52631U 22052AK  23223.56932921  .00000135  00000-0  26570-4 0  9990,2 52631  53.2146 173.9754 0001096 114.1819 245.9288 15.08825461 69291,6917.925,95.438,540.548,539.032,0.0
52631.0,STARLINK-3794,PAYLOAD,2023-08-12 02:22:54,15.08842052,0.000119,53.2171,171.5957,109.8542,250.2579,7.5972e-05,9.22e-06,0.0,0 STARLINK-3794,1 52631U 22052AK  23224.09924100  .00000922  00000-0  75972-4 0  9993,2 52631  53.2171 171.5957 0001190 109.8542 250.2579 15.08842052 69373,6917.874,95.437,540.562,538.916,0.0
52631.0,STARLINK-3794,PAYLOAD,2023-08-12 05:33:40,15.08849984,0.000118,53.2163,171.0015,108.6255,251.4865,0.00012165,1.649e-05,0.0,0 STARLINK-3794,1 52631U 22052AK  23224.23171480  .00001649  00000-0  12165-3 0  9995,2 52631  53.2163 171.0015 0001180 108.6255 251.4865 15.08849984 69395,6917.85,95.437,540.531,538.899,0.0
52631.0,STARLINK-3794,PAYLOAD,2023-08-12 13:30:35,15.08840792,0.0001131,53.2155,169.514,104.801,255.3107,0.00026319,3.903e-05,0.0,0 STARLINK-3794,1 52631U 22052AK  23224.56291660  .00003903  00000-0  26319-3 0  9995,2 52631  53.2155 169.5140 0001131 104.8010 255.3107 15.08840792 69446,6917.878,95.438,540.525,538.961,0.0
52631.0,STARLINK-3794,PAYLOAD,2023-08-14 02:04:28,15.08846767,0.0001584,53.2148,162.671,108.6595,251.4569,-1.2847e-05,-4.93e-06,0.0,0 STARLINK-3794,1 52631U 22052AK  23226.08643532 -.00000493  00000-0 -12847-4 0  9998,2 52631  53.2148 162.6710 0001584 108.6595 251.4569 15.08846767 69679,6917.86,95.437,540.82,538.629,0.0
52631.0,STARLINK-3794,PAYLOAD,2023-08-15 05:06:00,15.08852363,0.0001289,53.2162,157.6191,104.0626,256.051,3.922e-05,3.37e-06,0.0,0 STARLINK-3794,1 52631U 22052AK  23227.21250882  .00000337  00000-0  39220-4 0  9995,2 52631  53.2162 157.6191 0001289 104.0626 256.0510 15.08852363 69844,6917.843,95.437,540.599,538.816,0.0
52631.0,STARLINK-3794,PAYLOAD,2023-08-16 01:46:01,15.08846765,0.0001292,53.2175,153.7549,96.2352,263.8788,8.4336e-05,1.055e-05,0.0,0 STARLINK-3794,1 52631U 22052AK  23228.07363102  .00001055  00000-0  84336-4 0  9996,2 52631  53.2175 153.7549 0001292  96.2352 263.8788 15.08846765 69970,6917.86,95.437,540.618,538.831,0.0
52631.0,STARLINK-3794,PAYLOAD,2023-08-16 19:15:16,15.08843693,0.0001075,53.2176,150.4854,86.8047,273.3068,3.4646e-05,2.64e-06,0.0,0 STARLINK-3794,1 52631U 22052AK  23228.80227463  .00000264  00000-0  34646-4 0  9996,2 52631  53.2176 150.4854 0001075  86.8047 273.3068 15.08843693 70087,6917.869,95.437,540.478,538.99,0.0
52631.0,STARLINK-3794,PAYLOAD,2023-08-18 01:27:35,15.08850425,0.0001239,53.2171,144.8352,89.1887,270.9247,0.00013623,1.881e-05,0.0,0 STARLINK-3794,1 52631U 22052AK  23230.06082683  .00001881  00000-0  13623-3 0  9997,2 52631  53.2171 144.8352 0001239  89.1887 270.9247 15.08850425 70276,6917.849,95.437,540.571,538.856,0.0
52631.0,STARLINK-3794,PAYLOAD,2023-08-19 01:18:23,15.08838769,0.0001289,53.2175,140.3763,89.3613,270.7527,2.5434e-05,1.17e-06,0.0,0 STARLINK-3794,1 52631U 22052AK  23231.05443441  .00000117  00000-0  25434-4 0  9995,2 52631  53.2175 140.3763 0001289  89.3613 270.7527 15.08838769 70424,6917.884,95.438,540.641,538.857,0.0
52631.0,STARLINK-3794,PAYLOAD,2023-08-20 02:44:33,15.08833785,0.000116,53.2166,135.6168,83.9167,276.1958,-3.6762e-05,-8.73e-06,0.0,0 STARLINK-3794,1 52631U 22052AK  23232.11427924 -.00000873  00000-0 -36762-4 0  9998,2 52631  53.2166 135.6168 0001160  83.9167 276.1958 15.08833785 70580,6917.899,95.438,540.567,538.962,0.0
52631.0,STARLINK-3794,PAYLOAD,2023-08-21 02:35:19,15.08861597,0.0001251,53.2165,131.1556,90.4006,269.7129,0.00042626,6.506e-05,0.0,0 STARLINK-3794,1 52631U 22052AK  23233.10786637  .00006506  00000-0  42626-3 0  9999,2 52631  53.2165 131.1556 0001251  90.4006 269.7129 15.08861597 70734,6917.814,95.436,540.545,538.814,0.0
52631.0,STARLINK-3794,PAYLOAD,2023-08-22 02:26:07,15.08846705,0.0001326,53.2157,126.6944,94.6375,265.4769,0.00019145,2.761e-05,0.0,0 STARLINK-3794,1 52631U 22052AK  23234.10147404  .00002761  00000-0  19145-3 0  9992,2 52631  53.2157 126.6944 0001326  94.6375 265.4769 15.08846705 70886,6917.86,95.437,540.642,538.808,0.0
52631.0,STARLINK-3794,PAYLOAD,2023-08-23 02:16:54,15.08841146,0.0001296,53.2157,122.2334,90.6843,269.4298,0.00023839,3.508e-05,0.0,0 STARLINK-3794,1 52631U 22052AK  23235.09507896  .00003508  00000-0  23839-3 0  9991,2 52631  53.2157 122.2334 0001296  90.6843 269.4298 15.08841146 71036,6917.877,95.437,540.638,538.845,0.0
52631.0,STARLINK-3794,PAYLOAD,2023-08-24 02:07:42,15.08838166,0.0001356,53.2172,117.771,74.1051,286.009,1.9828e-05,2.8e-07,0.0,0 STARLINK-3794,1 52631U 22052AK  23236.08868462  .00000028  00000-0  19828-4 0  9998,2 52631  53.2172 117.7710 0001356  74.1051 286.0090 15.08838166 70813,6917.886,95.438,540.689,538.813,0.0
52631.0,STARLINK-3794,PAYLOAD,2023-08-25 01:58:29,15.08834847,0.0001326,53.2168,113.3123,93.6829,266.4314,0.0005067,7.784e-05,0.0,0 STARLINK-3794,1 52631U 22052AK  23237.08228818  .00007784  00000-0  50670-3 0  9999,2 52631  53.2168 113.3123 0001326  93.6829 266.4314 15.08834847 70963,6917.896,95.438,540.678,538.844,0.0
52631.0,STARLINK-3794,PAYLOAD,2023-08-25 19:27:43,15.08840297,0.0001233,53.2166,110.0418,83.9858,276.1275,7.8976e-05,9.69e-06,0.0,0 STARLINK-3794,1 52631U 22052AK  23237.81092490  .00000969  00000-0  78976-4 0  9993,2 52631  53.2166 110.0418 0001233  83.9858 276.1275 15.08840297 71447,6917.879,95.438,540.597,538.892,0.0
